{
    "links": {
        "self": "http://www.neowsapp.com/rest/v1/neo/3781253?api_key=iIulBulltgU6a56xZRHN4H3l9WmuAYTsLGpBGhQ2"
    },
    "id": "3781253",
    "neo_reference_id": "3781253",
    "name": "(2017 QP33)",
    "designation": "2017 QP33",
    "nasa_jpl_url": "http://ssd.jpl.nasa.gov/sbdb.cgi?sstr=3781253",
    "absolute_magnitude_h": 24.2,
    "estimated_diameter": {
        "kilometers": {
            "estimated_diameter_min": 0.0384197891,
            "estimated_diameter_max": 0.0859092601
        },
        "meters": {
            "estimated_diameter_min": 38.4197891064,
            "estimated_diameter_max": 85.9092601232
        },
        "miles": {
            "estimated_diameter_min": 0.0238729428,
            "estimated_diameter_max": 0.0533815229
        },
        "feet": {
            "estimated_diameter_min": 126.0491808919,
            "estimated_diameter_max": 281.8545369825
        }
    },
    "is_potentially_hazardous_asteroid": false,
    "close_approach_data": [
        {
            "close_approach_date": "1916-07-03",
            "close_approach_date_full": "1916-Jul-03 17:35",
            "epoch_date_close_approach": -1688192700000,
            "relative_velocity": {
                "kilometers_per_second": "16.4207030139",
                "kilometers_per_hour": "59114.5308501833",
                "miles_per_hour": "36731.4705718819"
            },
            "miss_distance": {
                "astronomical": "0.3802213659",
                "lunar": "147.9061113351",
                "kilometers": "56880306.467130633",
                "miles": "35343783.5256554154"
            },
            "orbiting_body": "Earth"
        },
        {
            "close_approach_date": "1930-07-22",
            "close_approach_date_full": "1930-Jul-22 15:19",
            "epoch_date_close_approach": -1244796060000,
            "relative_velocity": {
                "kilometers_per_second": "9.2558554477",
                "kilometers_per_hour": "33321.0796118641",
                "miles_per_hour": "20704.4230510497"
            },
            "miss_distance": {
                "astronomical": "0.1518303838",
                "lunar": "59.0620192982",
                "kilometers": "22713502.017762506",
                "miles": "14113515.7014183428"
            },
            "orbiting_body": "Earth"
        },
        {
            "close_approach_date": "1989-07-01",
            "close_approach_date_full": "1989-Jul-01 11:20",
            "epoch_date_close_approach": 615295200000,
            "relative_velocity": {
                "kilometers_per_second": "18.2826695974",
                "kilometers_per_hour": "65817.6105505666",
                "miles_per_hour": "40896.5036223784"
            },
            "miss_distance": {
                "astronomical": "0.4447950427",
                "lunar": "173.0252716103",
                "kilometers": "66540390.974479049",
                "miles": "41346281.6989829162"
            },
            "orbiting_body": "Earth"
        },
        {
            "close_approach_date": "2017-08-17",
            "close_approach_date_full": "2017-Aug-17 16:40",
            "epoch_date_close_approach": 1502988000000,
            "relative_velocity": {
                "kilometers_per_second": "5.6034116145",
                "kilometers_per_hour": "20172.2818122008",
                "miles_per_hour": "12534.2714404755"
            },
            "miss_distance": {
                "astronomical": "0.061406359",
                "lunar": "23.887073651",
                "kilometers": "9186260.51085533",
                "miles": "5708077.594370354"
            },
            "orbiting_body": "Earth"
        },
        {
            "close_approach_date": "2020-02-29",
            "close_approach_date_full": "2020-Feb-29 23:31",
            "epoch_date_close_approach": 1583019060000,
            "relative_velocity": {
                "kilometers_per_second": "8.9996094188",
                "kilometers_per_hour": "32398.5939075917",
                "miles_per_hour": "20131.2263088588"
            },
            "miss_distance": {
                "astronomical": "0.0014423818",
                "lunar": "0.5610865202",
                "kilometers": "215777.245006766",
                "miles": "134077.7627787308"
            },
            "orbiting_body": "Mars"
        }
    ],
    "orbital_data": {
        "orbit_id": "6",
        "orbit_determination_date": "2017-12-26 06:23:11",
        "first_observation_date": "2017-08-29",
        "last_observation_date": "2017-09-30",
        "data_arc_in_days": 32,
        "observations_used": 40,
        "orbit_uncertainty": "7",
        "minimum_orbit_intersection": ".0633694",
        "jupiter_tisserand_invariant": "3.703",
        "epoch_osculation": "2459000.5",
        "eccentricity": ".4665760393169766",
        "semi_major_axis": "1.994749524203273",
        "inclination": "2.035271764167128",
        "ascending_node_longitude": "258.224451016839",
        "orbital_period": "1029.036980073302",
        "perihelion_distance": "1.064047191771086",
        "perihelion_argument": "72.0390850952497",
        "aphelion_distance": "2.92545185663546",
        "perihelion_time": "2459012.645944480953",
        "mean_anomaly": "355.7508426831934",
        "mean_motion": ".3498416548396112",
        "equinox": "J2000",
        "orbit_class": {
            "orbit_class_type": "AMO",
            "orbit_class_description": "Near-Earth asteroid orbits similar to that of 1221 Amor",
            "orbit_class_range": "1.017 AU < q (perihelion) < 1.3 AU"
        }
    },
    "is_sentry_object": false
}